[{"OBJECT_NAME":"KUIPER-00126","OBJECT_ID":"2025-228J","EPOCH":"2026-03-09T04:31:57.445248","MEAN_MOTION":14.79934112,"ECCENTRICITY":9.562e-5,"INCLINATION":51.9024,"RA_OF_ASC_NODE":2.8184,"ARG_OF_PERICENTER":103.8093,"MEAN_ANOMALY":256.2976,"EPHEMERIS_TYPE":0,"CLASSIFICATION_TYPE":"U","NORAD_CAT_ID":65955,"ELEMENT_SET_NO":999,"REV_AT_EPOCH":2315,"BSTAR":0.00032955601,"MEAN_MOTION_DOT":2.292e-5,"MEAN_MOTION_DDOT":0},{"OBJECT_NAME":"FENGYUN 1C DEB","OBJECT_ID":"1999-025ED","EPOCH":"2026-03-09T21:59:59.442144","MEAN_MOTION":14.4345346,"ECCENTRICITY":0.01678294,"INCLINATION":99.0345,"RA_OF_ASC_NODE":207.5737,"ARG_OF_PERICENTER":138.1436,"MEAN_ANOMALY":341.2506,"EPHEMERIS_TYPE":0,"CLASSIFICATION_TYPE":"U","NORAD_CAT_ID":29835,"ELEMENT_SET_NO":999,"REV_AT_EPOCH":750,"BSTAR":0.00018641992,"MEAN_MOTION_DOT":6.91e-6,"MEAN_MOTION_DDOT":0}]
